[{"OBJECT_NAME":"STARLINK-35539","OBJECT_ID":"2025-225F","EPOCH":"2026-03-09T12:45:12.470976","MEAN_MOTION":15.30161108,"ECCENTRICITY":0.00015694,"INCLINATION":53.159,"RA_OF_ASC_NODE":166.4505,"ARG_OF_PERICENTER":68.7551,"MEAN_ANOMALY":291.3618,"EPHEMERIS_TYPE":0,"CLASSIFICATION_TYPE":"U","NORAD_CAT_ID":65915,"ELEMENT_SET_NO":999,"REV_AT_EPOCH":2438,"BSTAR":0.0012806501,"MEAN_MOTION_DOT":0.00037717,"MEAN_MOTION_DDOT":0},{"OBJECT_NAME":"CZ-6A DEB","OBJECT_ID":"2022-151QV","EPOCH":"2026-03-09T04:36:08.895168","MEAN_MOTION":15.24642942,"ECCENTRICITY":0.00273347,"INCLINATION":98.639,"RA_OF_ASC_NODE":154.2763,"ARG_OF_PERICENTER":174.5721,"MEAN_ANOMALY":185.5815,"EPHEMERIS_TYPE":0,"CLASSIFICATION_TYPE":"U","NORAD_CAT_ID":54908,"ELEMENT_SET_NO":999,"REV_AT_EPOCH":17373,"BSTAR":0.0098290719,"MEAN_MOTION_DOT":0.00253193,"MEAN_MOTION_DDOT":0}]
